STARLINK-11237 [DTC]    
1 60934U 24155L   26160.54484184 -.00002060  00000+0 -12143-4 0  9996
2 60934  53.1593 248.1181 0001130  81.0100 279.1046 15.69715633102840
STARLINK-11253 [DTC]    
1 60935U 24155M   26160.53514177 -.00000625  00000+0 -30341-6 0  9999
2 60935  53.1595 248.7853 0000947  72.1356 287.9765 15.69704057102825
STARLINK-11241 [DTC]    
1 60936U 24155N   26160.53024038 -.00000925  00000+0 -27805-5 0  9995
2 60936  53.1597 248.7519 0001085  83.7628 276.3513 15.69694093102822
STARLINK-32259          
1 60937U 24155P   26160.42505392  .00000926  00000+0  43409-4 0  9997
2 60937  53.1615  63.7354 0001436  87.9256 272.1909 15.30195023100388
STARLINK-32262          
1 60938U 24155Q   26160.91668981  .00185551  00000+0  78409-3 0  9991
2 60938  53.1383  16.8529 0002474  89.1745 325.9018 15.84368887  5699
STARLINK-32258          
1 60939U 24155R   26160.44264343  .00001533  00000+0  56500-4 0  9990
2 60939  53.1604  63.1360 0001254  71.6408 288.4731 15.34398986100342
STARLINK-32251          
1 60940U 24155S   26160.46578667  .00001902  00000+0  67420-4 0  9994
2 60940  53.1604  63.2776 0001361  88.9417 271.1741 15.34390600100396
STARLINK-32224          
1 60941U 24155T   26159.04289850 -.00001425  00000+0 -36004-4 0  9996
2 60941  53.1616  70.0421 0001443 110.0243 250.0914 15.30181624100183
STARLINK-32184          
1 60942U 24155U   26160.44687544  .00021368  00000+0  64169-3 0  9993
2 60942  53.1600  63.1644 0001748  91.0568 269.0635 15.34402253100349
STARLINK-32288          
1 60943U 24155V   26160.44895767  .00002914  00000+0  97381-4 0  9991
2 60943  53.1626  63.1711 0002091  89.8038 270.3204 15.34387810100340
STARLINK-32276          
1 60944U 24155W   26160.91668981 -.00008122  00000+0 -23584-3 0  9992
2 60944  53.1596  61.4437 0000826  98.7331  91.8653 15.33555675  5862
STARLINK-11289 [DTC]    
1 60991U 24158B   26160.34896038 -.00000465  00000+0  10230-5 0  9997
2 60991  53.1601 189.2089 0001496  83.8251 276.2938 15.69708850101993
STARLINK-11282 [DTC]    
1 60992U 24158C   26160.36367758  .00000870  00000+0  12031-4 0  9991
2 60992  53.1582 189.3056 0000312  68.3714 291.7338 15.69700675101998
STARLINK-11283 [DTC]    
1 60993U 24158D   26160.33434523  .00001184  00000+0  14635-4 0  9995
2 60993  53.1585 189.8377 0001421  46.4174 313.6962 15.69703374101987
STARLINK-11267 [DTC]    
1 60994U 24158E   26160.77512760  .00003121  00000+0  30629-4 0  9998
2 60994  53.1596 187.6170 0001418  88.7753 271.3428 15.69694464102050
STARLINK-11269 [DTC]    
1 60995U 24158F   26160.32454614  .00010811  00000+0  94172-4 0  9990
2 60995  53.1575 189.7755 0000947 103.0159 257.0965 15.69658955101979
STARLINK-11281 [DTC]    
1 60996U 24158G   26160.38329586  .00001004  00000+0  13139-4 0  9994
2 60996  53.1589 189.4310 0000839  95.8717 264.2397 15.69707881101980
STARLINK-11260 [DTC]    
1 60997U 24158H   26160.31658548  .00001603  00000+0  18097-4 0  9994
2 60997  53.1586 167.4160 0001053  78.7523 281.3613 15.69699288102344
STARLINK-11287 [DTC]    
1 60998U 24158J   26160.37838987  .00000371  00000+0  79160-5 0  9998
2 60998  53.1596 189.3987 0000741  73.4042 286.7058 15.69703909101984
STARLINK-11270 [DTC]    
1 60999U 24158K   26160.56448958  .00131944  00000+0  10753-2 0  9996
2 60999  53.1570 188.4271 0001068 109.6082 250.5051 15.69741637102019
STARLINK-11290 [DTC]    
1 61000U 24158L   26160.36857956  .00002514  00000+0  25611-4 0  9991
2 61000  53.1591 189.3328 0000942  78.7674 281.3450 15.69695792102051
STARLINK-11274 [DTC]    
1 61001U 24158M   26160.35876935 -.00001088  00000+0 -41318-5 0  9999
2 61001  53.1577 189.2697 0000763  32.1633 327.9431 15.69708150101984
STARLINK-11288 [DTC]    
1 61002U 24158N   26160.35386676  .00001862  00000+0  20234-4 0  9999
2 61002  53.1582 189.2381 0001150  87.6864 272.4286 15.69697127101986
STARLINK-32279          
1 61003U 24158P   26160.84561298  .00002195  00000+0  76065-4 0  9992
2 61003  53.1622 357.2739 0001168  91.1595 268.9542 15.34408716 99769
STARLINK-32336          
1 61004U 24158Q   26160.85192672  .00053478  00000+0  15976-2 0  9992
2 61004  53.1609 357.3124 0000890 167.0749 193.0276 15.34102961 99764
STARLINK-32284          
1 61005U 24158R   26160.91668981  .00034036  00000+0  10149-2 0  9997
2 61005  53.1598 356.9209 0001097 100.0534 304.5803 15.34370465  5869
STARLINK-32282          
1 61006U 24158S   26160.72455917  .00002568  00000+0  98845-4 0  9996
2 61006  53.1604 357.9362 0000378  84.5933 275.5111 15.30176139 99746
STARLINK-32360          
1 61007U 24158T   26160.79399731  .00003292  00000+0  10848-3 0  9996
2 61007  53.1614 341.6582 0001026  91.8040 268.3080 15.34413892 99900
STARLINK-32340          
1 61008U 24158U   26160.78466516  .00001519  00000+0  56098-4 0  9990
2 61008  53.1601 357.5356 0001160 132.1755 227.9347 15.34390862 99686
STARLINK-32347          
1 61010U 24158W   26160.27039573  .00013928  00000+0  48000-3 0  9996
2 61010  53.1628   0.0768 0001605 161.5591 198.5468 15.30300049 99606
