OBJECT_NAME,OBJECT_ID,EPOCH,MEAN_MOTION,ECCENTRICITY,INCLINATION,RA_OF_ASC_NODE,ARG_OF_PERICENTER,MEAN_ANOMALY,EPHEMERIS_TYPE,CLASSIFICATION_TYPE,NORAD_CAT_ID,ELEMENT_SET_NO,REV_AT_EPOCH,BSTAR,MEAN_MOTION_DOT,MEAN_MOTION_DDOT
STARLINK-11237 [DTC],2024-155L,2026-06-09T13:04:34.334976,15.69715633,.00011304,53.1593,248.1181,81.0100,279.1046,0,U,60934,999,10284,-.1214253E-4,-.206E-4,0
STARLINK-11253 [DTC],2024-155M,2026-06-09T12:50:36.248928,15.69704057,.00009476,53.1595,248.7853,72.1356,287.9765,0,U,60935,999,10282,-.303413E-6,-.625E-5,0
STARLINK-11241 [DTC],2024-155N,2026-06-09T12:43:32.768832,15.69694093,.00010851,53.1597,248.7519,83.7628,276.3513,0,U,60936,999,10282,-.2780462E-5,-.925E-5,0
STARLINK-32259,2024-155P,2026-06-09T10:12:04.658688,15.30195023,.00014369,53.1615,63.7354,87.9256,272.1909,0,U,60937,999,10038,.43409431E-4,.926E-5,0
STARLINK-32262,2024-155Q,2026-06-09T22:00:01.999584,15.84368887,.00024742,53.1383,16.8529,89.1745,325.9018,0,U,60938,999,569,.78408993E-3,.185551E-2,0
STARLINK-32258,2024-155R,2026-06-09T10:37:24.392352,15.34398986,.00012547,53.1604,63.1360,71.6408,288.4731,0,U,60939,999,10034,.56500326E-4,.1533E-4,0
STARLINK-32251,2024-155S,2026-06-09T11:10:43.968288,15.34390600,.0001361,53.1604,63.2776,88.9417,271.1741,0,U,60940,999,10039,.6742022E-4,.1902E-4,0
STARLINK-32224,2024-155T,2026-06-08T01:01:46.430400,15.30181624,.00014436,53.1616,70.0421,110.0243,250.0914,0,U,60941,999,10018,-.36003829E-4,-.1425E-4,0
STARLINK-32184,2024-155U,2026-06-09T10:43:30.038016,15.34402253,.00017481,53.1600,63.1644,91.0568,269.0635,0,U,60942,999,10034,.64169264E-3,.21368E-3,0
STARLINK-32288,2024-155V,2026-06-09T10:46:29.942688,15.34387810,.0002091,53.1626,63.1711,89.8038,270.3204,0,U,60943,999,10034,.97380986E-4,.2914E-4,0
STARLINK-32276,2024-155W,2026-06-09T22:00:01.999584,15.33555675,.00008269,53.1596,61.4437,98.7331,91.8653,0,U,60944,999,586,-.23584332E-3,-.8122E-4,0
STARLINK-11289 [DTC],2024-158B,2026-06-09T08:22:30.176832,15.69708850,.00014964,53.1601,189.2089,83.8251,276.2938,0,U,60991,999,10199,.1022956E-5,-.465E-5,0
STARLINK-11282 [DTC],2024-158C,2026-06-09T08:43:41.742912,15.69700675,.00003122,53.1582,189.3056,68.3714,291.7338,0,U,60992,999,10199,.12030879E-4,.87E-5,0
STARLINK-11283 [DTC],2024-158D,2026-06-09T08:01:27.427872,15.69703374,.00014214,53.1585,189.8377,46.4174,313.6962,0,U,60993,999,10198,.14634659E-4,.1184E-4,0
STARLINK-11267 [DTC],2024-158E,2026-06-09T18:36:11.024640,15.69694464,.00014181,53.1596,187.6170,88.7753,271.3428,0,U,60994,999,10205,.30629144E-4,.3121E-4,0
STARLINK-11269 [DTC],2024-158F,2026-06-09T07:47:20.786496,15.69658955,.00009477,53.1575,189.7755,103.0159,257.0965,0,U,60995,999,10197,.94171954E-4,.10811E-3,0
STARLINK-11281 [DTC],2024-158G,2026-06-09T09:11:56.762304,15.69707881,.00008397,53.1589,189.4310,95.8717,264.2397,0,U,60996,999,10198,.13139142E-4,.1004E-4,0
STARLINK-11260 [DTC],2024-158H,2026-06-09T07:35:52.985472,15.69699288,.00010532,53.1586,167.4160,78.7523,281.3613,0,U,60997,999,10234,.18096636E-4,.1603E-4,0
STARLINK-11287 [DTC],2024-158J,2026-06-09T09:04:52.884768,15.69703909,.0000741,53.1596,189.3987,73.4042,286.7058,0,U,60998,999,10198,.791603E-5,.371E-5,0
STARLINK-11270 [DTC],2024-158K,2026-06-09T13:32:51.899712,15.69741637,.00010686,53.1570,188.4271,109.6082,250.5051,0,U,60999,999,10201,.10752835E-2,.131944E-2,0
STARLINK-11290 [DTC],2024-158L,2026-06-09T08:50:45.273984,15.69695792,.00009425,53.1591,189.3328,78.7674,281.3450,0,U,61000,999,10205,.2561068E-4,.2514E-4,0
STARLINK-11274 [DTC],2024-158M,2026-06-09T08:36:37.671840,15.69708150,.00007637,53.1577,189.2697,32.1633,327.9431,0,U,61001,999,10198,-.4131842E-5,-.1088E-4,0
STARLINK-11288 [DTC],2024-158N,2026-06-09T08:29:34.088064,15.69697127,.00011504,53.1582,189.2381,87.6864,272.4286,0,U,61002,999,10198,.20233608E-4,.1862E-4,0
STARLINK-32279,2024-158P,2026-06-09T20:17:40.961472,15.34408716,.00011684,53.1622,357.2739,91.1595,268.9542,0,U,61003,999,9976,.76064957E-4,.2195E-4,0
STARLINK-32336,2024-158Q,2026-06-09T20:26:46.468608,15.34102961,.00008903,53.1609,357.3124,167.0749,193.0276,0,U,61004,999,9976,.15975995E-2,.53478E-3,0
STARLINK-32284,2024-158R,2026-06-09T22:00:01.999584,15.34370465,.00010973,53.1598,356.9209,100.0534,304.5803,0,U,61005,999,586,.10148634E-2,.34036E-3,0
STARLINK-32282,2024-158S,2026-06-09T17:23:21.912288,15.30176139,.00003785,53.1604,357.9362,84.5933,275.5111,0,U,61006,999,9974,.98844705E-4,.2568E-4,0
STARLINK-32360,2024-158T,2026-06-09T19:03:21.367584,15.34413892,.00010265,53.1614,341.6582,91.8040,268.3080,0,U,61007,999,9990,.1084803E-3,.3292E-4,0
STARLINK-32340,2024-158U,2026-06-09T18:49:55.069824,15.34390862,.000116,53.1601,357.5356,132.1755,227.9347,0,U,61008,999,9968,.56097654E-4,.1519E-4,0
STARLINK-32347,2024-158W,2026-06-09T06:29:22.191072,15.30300049,.0001605,53.1628,0.0768,161.5591,198.5468,0,U,61010,999,9960,.48000278E-3,.13928E-3,0
